[{"OBJECT_NAME":"STARLINK-35938","OBJECT_ID":"2025-271AD","EPOCH":"2026-03-09T10:30:08.422272","MEAN_MOTION":15.30196229,"ECCENTRICITY":0.00015581,"INCLINATION":53.159,"RA_OF_ASC_NODE":141.4179,"ARG_OF_PERICENTER":131.009,"MEAN_ANOMALY":229.1046,"EPHEMERIS_TYPE":0,"CLASSIFICATION_TYPE":"U","NORAD_CAT_ID":66644,"ELEMENT_SET_NO":999,"REV_AT_EPOCH":1752,"BSTAR":0.00043422689,"MEAN_MOTION_DOT":0.00012522,"MEAN_MOTION_DDOT":0},{"OBJECT_NAME":"TITAN 4B R\/B","OBJECT_ID":"2005-016B","EPOCH":"2026-03-09T20:27:57.848832","MEAN_MOTION":15.42682045,"ECCENTRICITY":0.00616552,"INCLINATION":56.9964,"RA_OF_ASC_NODE":245.9411,"ARG_OF_PERICENTER":20.2929,"MEAN_ANOMALY":340.0555,"EPHEMERIS_TYPE":0,"CLASSIFICATION_TYPE":"U","NORAD_CAT_ID":28647,"ELEMENT_SET_NO":999,"REV_AT_EPOCH":37707,"BSTAR":0.00046483736,"MEAN_MOTION_DOT":0.0002164,"MEAN_MOTION_DDOT":0}]
